satname,norad_id,inclination_deg,eccentricity,mean_motion_rev_per_day,perigee_km,apogee_km,l1,l2
STARLINK-1184,45098,53.0545,0.0001075,15.07340741,543.5856567236642,545.0739870903735,1 45098U 20006BG  26005.60911867  .00039156  00000+0  25670-2 0  9990,2 45098  53.0545 169.7019 0001075 129.9428 230.1656 15.07340741327514
STARLINK-1193,45100,53.055,8.83e-05,15.11645093,530.5725104058183,531.7926962477668,1 45100U 20006BJ  26005.66668981  .02154108  00000+0  11364+0 0  9995,2 45100  53.0550 169.4873 0000883 101.1850 208.6965 15.11645093  5694
STARLINK-1143,45179,53.0515,0.0004008,15.50637927,412.1397187307939,417.5849870120546,1 45179U 20012B   26005.16854694  .00081104  00000+0  13843-2 0  9991,2 45179  53.0515 277.4578 0004008 104.8064 255.3389 15.50637927326036
STARLINK-1202,45183,53.0552,0.0001334,15.06397366,546.2957882061282,548.1434733552205,1 45183U 20012F   26005.61088775  .00001379  00000+0  11145-3 0  9995,2 45183  53.0552 329.7928 0001334  89.9190 270.1952 15.06397366325338
STARLINK-1216,45185,53.0555,0.0001712,15.06406532,546.0059221256279,548.3771546171674,1 45185U 20012H   26005.60351622  .00009661  00000+0  66645-3 0  9997,2 45185  53.0555 329.8217 0001712  86.3360 273.7825 15.06406532325272
STARLINK-1225,45187,53.0537,0.0001188,15.06400792,546.3863994530984,548.0318616937229,1 45187U 20012K   26005.62194473  .00000651  00000+0  62594-4 0  9990,2 45187  53.0537 329.7391 0001188  89.4388 270.6737 15.06400792325323
STARLINK-1230,45189,53.0536,0.0001352,15.06407639,546.2518416427465,548.1244495621168,1 45189U 20012M   26005.62563036  .00010913  00000+0  75023-3 0  9999,2 45189  53.0536 329.7261 0001352  87.0635 273.0509 15.06407639322555
STARLINK-1234,45190,53.0492,0.0013714,15.48363945,412.18664700432873,430.8367234181269,1 45190U 20012N   26005.15135210  .00092189  00000+0  16956-2 0  9992,2 45190  53.0492 272.5162 0013714  88.8565 271.4014 15.48363945325990
STARLINK-1269,45197,53.0564,0.0001683,15.06407208,546.0239341001889,548.354998988827,1 45197U 20012V   26005.30495157  .00002771  00000+0  20479-3 0  9999,2 45197  53.0564 331.1622 0001683  90.0500 270.0682 15.06407208325256
STARLINK-1154,45198,53.055,0.0001329,15.33468144,464.56479913961357,466.383831027164,1 45198U 20012W   26005.66668981  .00199170  00000+0  59226-2 0  9997,2 45198  53.0550 308.1596 0001329  80.9650 123.0093 15.33468144  5846
STARLINK-1199,45201,53.0533,0.0001467,15.06404791,546.1809277728717,548.2128207315773,1 45201U 20012Z   26005.57218207  .00003360  00000+0  24431-3 0  9990,2 45201  53.0533 309.9673 0001467  72.1728 287.9421 15.06404791325601
STARLINK-1209,45206,53.0501,0.0014015,15.40744103,434.3508577543671,453.47306098748413,1 45206U 20012AE  26005.62318933  .00104183  00000+0  24775-2 0  9993,2 45206  53.0501 274.0172 0014015  89.0578 271.2032 15.40744103325167
STARLINK-1210,45207,53.0169,0.0003376,15.76634475,337.7160738085531,342.2521491830348,1 45207U 20012AF  26005.66668981  .00156322  00000+0  94524-3 0  9991,2 45207  53.0169 221.1500 0003376 208.3840 336.8569 15.76634475  5923
STARLINK-1231,45212,53.0522,0.0001847,15.16762262,514.3603846382575,516.9069435215688,1 45212U 20012AL  26005.23556450  .00023337  00000+0  11867-2 0  9994,2 45212  53.0522 306.0919 0001847 105.2559 254.8639 15.16762262325586
STARLINK-1271,45217,53.055,0.000179,15.06412345,545.9340919303322,548.413353169005,1 45217U 20012AR  26005.22569785  .00005019  00000+0  35550-3 0  9996,2 45217  53.0550 311.5190 0001790 110.6452 249.4730 15.06412345325555
STARLINK-1191,45222,53.0546,0.0001388,15.06402286,546.2433142790078,548.1657890937558,1 45222U 20012AW  26005.23492507  .00007322  00000+0  50987-3 0  9990,2 45222  53.0546 291.4767 0001388  94.1649 265.9498 15.06402286325837
STARLINK-1212,45223,53.0556,0.00014,15.27104059,483.5138391102064,485.4353703595334,1 45223U 20012AX  26005.66668981  .01067895  00000+0  36261-1 0  9998,2 45223  53.0556 289.3460 0001400  95.4671  64.7559 15.27104059  5747
STARLINK-1215,45225,53.0545,0.0001267,15.06415754,546.2858390732663,548.0407101628543,1 45225U 20012AZ  26005.07642032  .00011610  00000+0  79666-3 0  9995,2 45225  53.0545 292.1883 0001267  88.2993 271.8141 15.06415754325765
STARLINK-1221,45227,53.0658,0.0005017,15.39400075,444.4575896427705,451.3068173115407,1 45227U 20012BB  26005.27325409  .00016539  00000+0  42549-3 0  9990,2 45227  53.0658 209.5385 0005017 149.5008 210.6288 15.39400075326935
STARLINK-1222,45228,53.0581,0.000239,15.42959093,435.75257362658886,439.0103914612455,1 45228U 20012BC  26005.16604841  .00022803  00000+0  51785-3 0  9992,2 45228  53.0581 286.0662 0002390 104.2237 255.9034 15.42959093325799
STARLINK-1226,45229,53.0554,0.0001167,15.06413541,546.3618737008583,547.9782403679692,1 45229U 20012BD  26005.20542759  .00006343  00000+0  44415-3 0  9990,2 45229  53.0554 291.6096 0001167  89.4974 270.6149 15.06413541325723
STARLINK-1227,45230,53.0555,0.0001502,15.06415325,546.1244091199369,548.2047697173984,1 45230U 20012BE  26005.06905098  .00010359  00000+0  71303-3 0  9993,2 45230  53.0555 292.2246 0001502  82.9268 277.1892 15.06415325325827
STARLINK-1246,45235,53.0561,0.0001668,15.06402151,546.0498184010876,548.3601124807583,1 45235U 20012BK  26005.61457376  .00002647  00000+0  19649-3 0  9996,2 45235  53.0561 329.7720 0001668  83.5993 276.5185 15.06402151325356
STARLINK-1270,45237,53.0542,0.0001941,15.3744541,452.34053147292525,454.9926376244475,1 45237U 20012BM  26005.19220078  .00079514  00000+0  21221-2 0  9993,2 45237  53.0542 288.5647 0001941  91.8960 268.2265 15.37445410325870
STARLINK-1279,45360,53.0487,0.0003272,15.44272895,431.2865918524258,435.7441371597588,1 45360U 20019A   26005.60856844  .00126251  00000+0  26663-2 0  9995,2 45360  53.0487  41.8151 0003272 316.8022  43.2727 15.44272895320886
STARLINK-1301,45361,53.0472,0.0005781,15.49323762,414.7738550208678,422.6323615540705,1 45361U 20019B   26005.63309491  .00122577  00000+0  21752-2 0  9991,2 45361  53.0472  49.9530 0005781 325.3883  34.6748 15.49323762320789
STARLINK-1306,45362,53.0336,0.0005582,16.07441767,250.16851676715942,257.57248994390557,1 45362U 20019C   26005.31188494  .00723782  28093-3  88455-3 0  9990,2 45362  53.0336  21.3959 0005582  55.6780 304.4780 16.07441767321142
STARLINK-1262,45366,53.0555,0.0001501,15.06400137,546.1716432975181,548.2506328085619,1 45366U 20019G   26005.46345099  .00002018  00000+0  15435-3 0  9990,2 45366  53.0555  90.4500 0001501  90.2895 269.8266 15.06400137320200
STARLINK-1273,45367,53.0575,0.0002345,15.06406058,545.5690012200985,548.8169809859255,1 45367U 20019H   26005.55191787 -.00000822  00000+0 -36271-4 0  9999,2 45367  53.0575  90.0578 0002345  61.4960 298.6265 15.06406058320212
STARLINK-1276,45368,53.0552,0.0001571,15.06399355,546.1255622020726,548.3015073400984,1 45368U 20019J   26005.52242640  .00006252  00000+0  43822-3 0  9992,2 45368  53.0552  90.1898 0001571  85.8871 274.2297 15.06399355320211
STARLINK-1277,45369,53.0551,2.26e-05,15.06563169,546.5550120134039,546.8680151662193,1 45369U 20019K   26003.98897535  .00022587  00000+0  15237-2 0  9997,2 45369  53.0551  97.6981 0000226 117.5740 242.5272 15.06563169319978
STARLINK-1281,45370,53.0557,0.0001325,15.0639668,546.3041232466376,548.139343310957,1 45370U 20019L   26005.51136094 -.00001919  00000+0 -10998-3 0  9994,2 45370  53.0557  90.2377 0001325  94.5012 265.6128 15.06396680320218
STARLINK-1300,45374,53.0544,0.0001205,15.06404852,546.3621845876896,548.031190006328,1 45374U 20019Q   26005.59982443  .00004325  00000+0  30904-3 0  9994,2 45374  53.0544  89.8397 0001205  92.1903 267.9224 15.06404852320228
STARLINK-1302,45375,53.0539,0.000117,15.09906484,535.6764820879107,537.2945037512536,1 45375U 20019R   26005.66668981  .01655157  00000+0  92466-1 0  9996,2 45375  53.0539  89.5217 0001170  86.1978 207.9003 15.09906484  5799
STARLINK-1304,45376,53.055,0.0001541,15.29390052,476.5780209829545,478.6909697578276,1 45376U 20019S   26005.66668981  .01821991  00000+0  57470-1 0  9994,2 45376  53.0550  88.6133 0001541  57.8679 242.5657 15.29390052  5740
STARLINK-1305,45377,53.0492,0.0002926,15.41992472,438.2344040228418,442.2245120740927,1 45377U 20019T   26005.46622578  .00090405  00000+0  20738-2 0  9990,2 45377  53.0492  74.3270 0002926 275.8019  84.2652 15.41992472320438
STARLINK-1319,45379,53.0517,0.0003798,15.45530767,427.23330302278464,432.40462637356904,1 45379U 20019V   26005.48217453  .00094966  00000+0  19314-2 0  9990,2 45379  53.0517  74.4786 0003798 268.9840  91.0731 15.45530767320437
STARLINK-1266,45383,53.054,9.72e-05,15.09979535,535.5903973934182,536.9345566517504,1 45383U 20019Z   26005.66668981  .00092973  00000+0  56053-2 0  9998,2 45383  53.0540  69.5224 0000972  79.7597   4.3039 15.09979535  5841
STARLINK-1267,45384,53.0551,0.0001996,15.38332164,449.6778182589924,452.4040260855227,1 45384U 20019AA  26005.44405090  .00077258  00000+0  20043-2 0  9994,2 45384  53.0551  67.7388 0001996  23.6908 336.4186 15.38332164320515
STARLINK-1272,45386,53.0495,0.0004863,15.44051634,430.8532611283981,437.4789071080113,1 45386U 20019AC  26005.60118012  .00028145  00000+0  61346-3 0  9992,2 45386  53.0495  52.4592 0004863 303.2162  56.8377 15.44051634320744
STARLINK-1274,45387,53.034,0.0005668,15.38192049,447.58461919880847,455.32664540678707,1 45387U 20019AD  26005.36130971  .00105136  00000+0  27253-2 0  9998,2 45387  53.0340  43.6037 0005668  25.2403 334.8876 15.38192049320846
STARLINK-1280,45388,53.0491,0.0003658,15.51074013,411.10464079926714,416.07346758051244,1 45388U 20019AE  26005.48559753  .00111204  00000+0  18590-2 0  9992,2 45388  53.0491  69.6929 0003658 281.4221  78.6376 15.51074013320486
STARLINK-1283,45389,53.0502,0.0006379,15.4310366,432.6084497086413,441.30314509957043,1 45389U 20019AF  26005.51474157  .00106624  00000+0  23488-2 0  9993,2 45389  53.0502  52.9724 0006379  14.3613 345.7572 15.43103660320735
